MOLNIYA 2-9             
1 07276U 74026A   20110.72729601 -.00000041  00000-0 -32863-3 0  9991
2 07276  64.0017 349.9007 6814547 288.2851  12.6229  2.45095010230051
MOLNIYA 2-10            
1 07376U 74056A   20108.39672351  .00001194  00000-0  00000+0 0  9996
2 07376  63.5218 174.6855 6745832 292.7942  11.8565  2.01104815334497
MOLNIYA 1-S             
1 07392U 74060A   20111.06665590 -.00000103  00000-0  00000-0 0  9995
2 07392   7.0188 294.2988 0008339 176.4218 197.9883  1.00198764111623
MOLNIYA 1-29            
1 07780U 75036A   20110.62173104 -.00000306  00000-0 -87662-3 0  9994
2 07780  62.9330 320.5270 7394395 287.9106   9.2694  2.00640774329799
MOLNIYA 2-14            
1 08195U 75081A   20110.37985944 -.00001066  00000-0  36658-2 0  9991
2 08195  63.0570 287.2863 7311075 292.7187   8.6660  2.02062262326966
MOLNIYA 1-32            
1 08601U 76006A   20109.11791615  .00000404  00000-0 -96673-3 0  9990
2 08601  62.6257  59.5578 7399554 278.4003  11.5229  2.00086239 36908
MOLNIYA 1-36            
1 09880U 77021A   20110.70618244 -.00001545  00000-0  81244-4 0  9997
2 09880  62.4503  31.0441 7484720 283.8349   9.7879  2.00676133213586
MOLNIYA 3-8             
1 10455U 77105A   20110.01378322 -.00000955  00000-0 -26833-2 0  9990
2 10455  62.3161 119.3025 7244869 275.9991  13.1512  2.00768163311303
MOLNIYA 1-40            
1 10925U 78055A   20109.17430210  .00000172  00000-0 -31065-1 0  9999
2 10925  62.5130 154.4431 7045496 278.0069  13.9855  2.00723819306838
MOLNIYA 3-10            
1 11057U 78095A   20111.63261940  .00000078  00000-0  12339-4 0  9996
2 11057  62.7855 339.3919 5961409 297.5121  14.9184  4.09618964351459
MOLNIYA 3-13            
1 11896U 80063A   20108.39815131 -.00000007  00000-0 -16307-3 0  9993
2 11896  62.5915 237.2235 7181285 275.3974  13.7319  2.00667703291274
MOLNIYA 1-49            
1 12156U 81009A   20110.21813168  .00001109  00000-0  29899-3 0  9998
2 12156  62.1776 282.7211 7231671 251.8118  22.7952  2.05692718205286
MOLNIYA 1-52            
1 13012U 81123A   20109.90298597  .00001096  00000-0  00000+0 0  9998
2 13012  63.5223  35.6877 7239717 248.5187  24.6776  2.00475753280800
MOLNIYA 1-53            
1 13070U 82015A   20111.57961944 -.00001353  00000-0  13736-3 0  9993
2 13070  62.3328 330.1303 7477613 275.3081  11.6202  2.00422671279443
MOLNIYA 3-20            
1 13875U 83015A   20109.53449187  .00001470  00000-0  39897-1 0  9993
2 13875  63.5349 108.1253 7120162 255.6033 320.0791  2.00650475207852
MOLNIYA 1-56            
1 13890U 83019A   20110.30045064  .00000764  00000-0  00000-0 0  9995
2 13890  63.2322 132.9232 7098370 260.4208  19.8905  1.99944906270832
MOLNIYA 1-62            
1 15214U 84089A   20109.18460230  .00001487  00000-0  93424-2 0  9992
2 15214  62.7190 141.2789 7256854 264.5721  16.7958  1.97931058228614
MOLNIYA 1-63            
1 15429U 84124A   20110.85897980  .00000172  00000-0  00000+0 0  9997
2 15429  63.6983 241.2075 6612210 266.8075 344.2697  2.00332329258982
MOLNIYA 3-24            
1 15738U 85040A   20110.86326492  .00000115  00000-0  61931-2 0  9994
2 15738  63.8586 214.7425 6465039 252.5734 345.0184  2.55629231283742
MOLNIYA 3-27            
1 16393U 85117A   20106.38277931  .00000094  00000-0  00000+0 0  9995
2 16393  64.6562 171.6558 6523170 257.7804  27.1714  2.12399982257352
MOLNIYA 1-69            
1 17078U 86089A   20104.79252389  .00000842  00000-0  10157+0 0  9993
2 17078  64.1433 262.9058 6735323 266.6041 100.9694  2.00734493244890
MOLNIYA 3-31            
1 17328U 87008A   20109.33990305  .00000267  00000-0  00000-0 0  9993
2 17328  63.8320 211.4931 6695037 261.1011  23.5821  2.00658091240013
MOLNIYA 1-71            
1 18946U 88017A   20108.33898243 -.00000114  00000-0 -27249-1 0  9996
2 18946  63.5208 212.6006 6822784 261.6710  36.3305  2.00593623235225
MOLNIYA 1-75            
1 19807U 89014A   20108.92269174  .00001336  00000-0  13587-1 0  9996
2 19807  64.3069  18.8850 7051873 271.6869  15.9788  2.00338316228225
MOLNIYA 1-80            
1 21118U 91012A   20110.31099011 -.00000653  00000-0  00000-0 0  9999
2 21118  64.2834  63.2593 6859482 286.5191  12.8247  2.05245523214801
MOLNIYA 3-40            
1 21196U 91022A   20110.20328572 -.00000142  00000-0  00000+0 0  9993
2 21196  64.4594  56.2283 6896145 283.4960  13.4440  2.02996731213630
MOLNIYA 1-81            
1 21426U 91043A   20109.96899738  .00000072  00000-0  00000+0 0  9991
2 21426  63.9933  82.9508 6978932 272.2928  16.3340  2.00628870211316
MOLNIYA 3-41            
1 21706U 91065A   20111.55062255  .00000887  00000-0  65023-2 0  9993
2 21706  64.1940 248.1817 6777793 265.1643  14.9277  2.04350533210835
MOLNIYA 3-42            
1 22178U 92067A   20104.54702092 -.00000026  00000-0  00000-0 0  9999
2 22178  64.7273 307.6336 6767696 278.3275  15.7572  2.20432257206990
MOLNIYA 1-86            
1 22671U 93035A   20111.43262938  .00000012  00000-0  56968-4 0  9991
2 22671  63.1730 332.3884 4826403 355.8837   1.3323  5.62602189307918
MOLNIYA 1-87            
1 22949U 93079A   20110.37482706  .00001283  00000-0  00000-0 0  9999
2 22949  63.3839 178.9217 6843829 289.3073  12.1932  2.02864116193277
MOLNIYA 1-88            
1 23420U 94081A   20109.94479896 -.00000047  00000-0 -21417-2 0  9991
2 23420  64.0865  19.4490 6029124 294.7097  15.4587  3.34494514 87294
MOLNIYA 3-47            
1 23642U 95042A   20109.49510656 -.00000059  00000-0  76647-1 0  9991
2 23642  63.2230 162.5054 6831163 288.5493  12.4543  2.01930704181088
MOLNIYA 1-90            
1 24960U 97054A   20109.91689358 -.00000035  00000-0 -27285-3 0  9994
2 24960  63.4268 353.3692 6384037 300.6191  11.7888  3.18685204182926
MOLNIYA 1-91            
1 25485U 98054A   20109.79967762 -.00000099  00000-0  13302-3 0  9996
2 25485  62.8010 283.6896 7130413 288.5585  10.5442  2.36440233159711
MOLNIYA 3-50            
1 25847U 99036A   20110.03135052  .00000408  00000-0 -57362-3 0  9995
2 25847  62.2683 100.9242 7334628 274.9603  12.8246  2.00652882152281
